CCSDS_OMM_VERS = 2.0
CREATION_DATE  = 
ORIGINATOR     = 

OBJECT_NAME    = STARLINK-36879
OBJECT_ID      = 2026-038X
CENTER_NAME    = EARTH
REF_FRAME      = TEME
TIME_SYSTEM    = UTC
MEAN_ELEMENT_THEORY = SGP/SGP4

EPOCH          = 2026-03-19T16:00:01.999584
MEAN_MOTION    = 15.49206658
ECCENTRICITY   = .000118
INCLINATION    = 97.2848
RA_OF_ASC_NODE = 89.4072
ARG_OF_PERICENTER = 78.0458
MEAN_ANOMALY   = 270.3185

EPHEMERIS_TYPE = 0
CLASSIFICATION_TYPE = U
NORAD_CAT_ID   = 67982
ELEMENT_SET_NO = 999
REV_AT_EPOCH   = 480
BSTAR          = -.18773E-3
MEAN_MOTION_DOT = -.10293E-3
MEAN_MOTION_DDOT = 0

CCSDS_OMM_VERS = 2.0
CREATION_DATE  = 
ORIGINATOR     = 

OBJECT_NAME    = STARLINK-36867
OBJECT_ID      = 2026-038Y
CENTER_NAME    = EARTH
REF_FRAME      = TEME
TIME_SYSTEM    = UTC
MEAN_ELEMENT_THEORY = SGP/SGP4

EPOCH          = 2026-03-19T16:00:01.999584
MEAN_MOTION    = 15.49453573
ECCENTRICITY   = .0001798
INCLINATION    = 97.2848
RA_OF_ASC_NODE = 89.4375
ARG_OF_PERICENTER = 108.2362
MEAN_ANOMALY   = 314.0500

EPHEMERIS_TYPE = 0
CLASSIFICATION_TYPE = U
NORAD_CAT_ID   = 67983
ELEMENT_SET_NO = 999
REV_AT_EPOCH   = 480
BSTAR          = -.86582E-2
MEAN_MOTION_DOT = -.449312E-2
MEAN_MOTION_DDOT = 0

CCSDS_OMM_VERS = 2.0
CREATION_DATE  = 
ORIGINATOR     = 

OBJECT_NAME    = STARLINK-36266
OBJECT_ID      = 2026-038Z
CENTER_NAME    = EARTH
REF_FRAME      = TEME
TIME_SYSTEM    = UTC
MEAN_ELEMENT_THEORY = SGP/SGP4

EPOCH          = 2026-03-19T16:00:01.999584
MEAN_MOTION    = 15.69045704
ECCENTRICITY   = .0001878
INCLINATION    = 97.2859
RA_OF_ASC_NODE = 89.5174
ARG_OF_PERICENTER = 94.4041
MEAN_ANOMALY   = 173.1299

EPHEMERIS_TYPE = 0
CLASSIFICATION_TYPE = U
NORAD_CAT_ID   = 67984
ELEMENT_SET_NO = 999
REV_AT_EPOCH   = 477
BSTAR          = -.23647E-1
MEAN_MOTION_DOT = -.2346501E-1
MEAN_MOTION_DDOT = 0

CCSDS_OMM_VERS = 2.0
CREATION_DATE  = 
ORIGINATOR     = 

OBJECT_NAME    = STARLINK-36802
OBJECT_ID      = 2026-038AA
CENTER_NAME    = EARTH
REF_FRAME      = TEME
TIME_SYSTEM    = UTC
MEAN_ELEMENT_THEORY = SGP/SGP4

EPOCH          = 2026-03-19T19:19:31.215360
MEAN_MOTION    = 15.75209668
ECCENTRICITY   = .0001597
INCLINATION    = 97.2878
RA_OF_ASC_NODE = 89.6681
ARG_OF_PERICENTER = 80.9210
MEAN_ANOMALY   = 279.2236

EPHEMERIS_TYPE = 0
CLASSIFICATION_TYPE = U
NORAD_CAT_ID   = 67985
ELEMENT_SET_NO = 999
REV_AT_EPOCH   = 478
BSTAR          = .87039E-3
MEAN_MOTION_DOT = .131831E-2
MEAN_MOTION_DDOT = 0

CCSDS_OMM_VERS = 2.0
CREATION_DATE  = 
ORIGINATOR     = 

OBJECT_NAME    = STARLINK-36535
OBJECT_ID      = 2026-039A
CENTER_NAME    = EARTH
REF_FRAME      = TEME
TIME_SYSTEM    = UTC
MEAN_ELEMENT_THEORY = SGP/SGP4

EPOCH          = 2026-03-19T16:00:01.999584
MEAN_MOTION    = 15.60300400
ECCENTRICITY   = .0001343
INCLINATION    = 42.9998
RA_OF_ASC_NODE = 354.2994
ARG_OF_PERICENTER = 250.6367
MEAN_ANOMALY   = 323.1359

EPHEMERIS_TYPE = 0
CLASSIFICATION_TYPE = U
NORAD_CAT_ID   = 67986
ELEMENT_SET_NO = 999
REV_AT_EPOCH   = 448
BSTAR          = -.2515E-1
MEAN_MOTION_DOT = -.1872056E-1
MEAN_MOTION_DDOT = 0

CCSDS_OMM_VERS = 2.0
CREATION_DATE  = 
ORIGINATOR     = 

OBJECT_NAME    = STARLINK-36744
OBJECT_ID      = 2026-039B
CENTER_NAME    = EARTH
REF_FRAME      = TEME
TIME_SYSTEM    = UTC
MEAN_ELEMENT_THEORY = SGP/SGP4

EPOCH          = 2026-03-19T16:00:01.999584
MEAN_MOTION    = 15.61756009
ECCENTRICITY   = .0001265
INCLINATION    = 42.9994
RA_OF_ASC_NODE = 354.2223
ARG_OF_PERICENTER = 250.0906
MEAN_ANOMALY   = 354.4594

EPHEMERIS_TYPE = 0
CLASSIFICATION_TYPE = U
NORAD_CAT_ID   = 67987
ELEMENT_SET_NO = 999
REV_AT_EPOCH   = 448
BSTAR          = -.23584E-1
MEAN_MOTION_DOT = -.1859618E-1
MEAN_MOTION_DDOT = 0

CCSDS_OMM_VERS = 2.0
CREATION_DATE  = 
ORIGINATOR     = 

OBJECT_NAME    = STARLINK-36734
OBJECT_ID      = 2026-039C
CENTER_NAME    = EARTH
REF_FRAME      = TEME
TIME_SYSTEM    = UTC
MEAN_ELEMENT_THEORY = SGP/SGP4

EPOCH          = 2026-03-19T16:00:01.999584
MEAN_MOTION    = 15.50527926
ECCENTRICITY   = .0001849
INCLINATION    = 42.9999
RA_OF_ASC_NODE = 355.2696
ARG_OF_PERICENTER = 249.4362
MEAN_ANOMALY   = 291.5365

EPHEMERIS_TYPE = 0
CLASSIFICATION_TYPE = U
NORAD_CAT_ID   = 67988
ELEMENT_SET_NO = 999
REV_AT_EPOCH   = 448
BSTAR          = .11326E-2
MEAN_MOTION_DOT = .66551E-3
MEAN_MOTION_DDOT = 0

CCSDS_OMM_VERS = 2.0
CREATION_DATE  = 
ORIGINATOR     = 

OBJECT_NAME    = STARLINK-36957
OBJECT_ID      = 2026-039D
CENTER_NAME    = EARTH
REF_FRAME      = TEME
TIME_SYSTEM    = UTC
MEAN_ELEMENT_THEORY = SGP/SGP4

EPOCH          = 2026-03-19T16:00:01.999584
MEAN_MOTION    = 15.60620393
ECCENTRICITY   = .0001195
INCLINATION    = 42.9996
RA_OF_ASC_NODE = 354.2511
ARG_OF_PERICENTER = 249.2779
MEAN_ANOMALY   = 343.3989

EPHEMERIS_TYPE = 0
CLASSIFICATION_TYPE = U
NORAD_CAT_ID   = 67989
ELEMENT_SET_NO = 999
REV_AT_EPOCH   = 448
BSTAR          = -.24613E-1
MEAN_MOTION_DOT = -.1856784E-1
MEAN_MOTION_DDOT = 0

CCSDS_OMM_VERS = 2.0
CREATION_DATE  = 
ORIGINATOR     = 

OBJECT_NAME    = STARLINK-36951
OBJECT_ID      = 2026-039E
CENTER_NAME    = EARTH
REF_FRAME      = TEME
TIME_SYSTEM    = UTC
MEAN_ELEMENT_THEORY = SGP/SGP4

EPOCH          = 2026-03-19T06:00:02.000160
MEAN_MOTION    = 15.58361148
ECCENTRICITY   = .00015576
INCLINATION    = 42.9997
RA_OF_ASC_NODE = 356.9048
ARG_OF_PERICENTER = 268.0285
MEAN_ANOMALY   = 69.2344

EPHEMERIS_TYPE = 0
CLASSIFICATION_TYPE = U
NORAD_CAT_ID   = 67990
ELEMENT_SET_NO = 999
REV_AT_EPOCH   = 441
BSTAR          = -.26703189E-1
MEAN_MOTION_DOT = -.1847922E-1
MEAN_MOTION_DDOT = 0

CCSDS_OMM_VERS = 2.0
CREATION_DATE  = 
ORIGINATOR     = 

OBJECT_NAME    = STARLINK-36941
OBJECT_ID      = 2026-039F
CENTER_NAME    = EARTH
REF_FRAME      = TEME
TIME_SYSTEM    = UTC
MEAN_ELEMENT_THEORY = SGP/SGP4

EPOCH          = 2026-03-19T16:00:01.999584
MEAN_MOTION    = 15.50526672
ECCENTRICITY   = .0001451
INCLINATION    = 43.0000
RA_OF_ASC_NODE = 355.2588
ARG_OF_PERICENTER = 254.1437
MEAN_ANOMALY   = 290.2598

EPHEMERIS_TYPE = 0
CLASSIFICATION_TYPE = U
NORAD_CAT_ID   = 67991
ELEMENT_SET_NO = 999
REV_AT_EPOCH   = 448
BSTAR          = .10943E-2
MEAN_MOTION_DOT = .64264E-3
MEAN_MOTION_DDOT = 0

CCSDS_OMM_VERS = 2.0
CREATION_DATE  = 
ORIGINATOR     = 

OBJECT_NAME    = STARLINK-36950
OBJECT_ID      = 2026-039G
CENTER_NAME    = EARTH
REF_FRAME      = TEME
TIME_SYSTEM    = UTC
MEAN_ELEMENT_THEORY = SGP/SGP4

EPOCH          = 2026-03-19T16:00:01.999584
MEAN_MOTION    = 15.50533255
ECCENTRICITY   = .0002003
INCLINATION    = 42.9999
RA_OF_ASC_NODE = 354.8815
ARG_OF_PERICENTER = 247.4992
MEAN_ANOMALY   = 89.6297

EPHEMERIS_TYPE = 0
CLASSIFICATION_TYPE = U
NORAD_CAT_ID   = 67992
ELEMENT_SET_NO = 999
REV_AT_EPOCH   = 448
BSTAR          = .15159E-2
MEAN_MOTION_DOT = .89467E-3
MEAN_MOTION_DDOT = 0

CCSDS_OMM_VERS = 2.0
CREATION_DATE  = 
ORIGINATOR     = 

OBJECT_NAME    = STARLINK-36975
OBJECT_ID      = 2026-039H
CENTER_NAME    = EARTH
REF_FRAME      = TEME
TIME_SYSTEM    = UTC
MEAN_ELEMENT_THEORY = SGP/SGP4

EPOCH          = 2026-03-19T16:00:01.999584
MEAN_MOTION    = 15.50511291
ECCENTRICITY   = .0001579
INCLINATION    = 43.0000
RA_OF_ASC_NODE = 354.7840
ARG_OF_PERICENTER = 236.4241
MEAN_ANOMALY   = 139.9907

EPHEMERIS_TYPE = 0
CLASSIFICATION_TYPE = U
NORAD_CAT_ID   = 67993
ELEMENT_SET_NO = 999
REV_AT_EPOCH   = 448
BSTAR          = .1747E-2
MEAN_MOTION_DOT = .103261E-2
MEAN_MOTION_DDOT = 0

